{
  "type": "FeatureCollection",
  "features": [
    {
      "type": "Feature",
      "properties": {
        "norad_id": 40938,
        "name": "BEIDOU-3S IGSO-2S (C56)",
        "group": "beidou",
        "lat": 24.96895947648786,
        "lon": -75.70961137371687,
        "alt_km": 36016.65899329729,
        "timestamp": "2025-12-25T07:00:34.311130+00:00",
        "meta_object_name": "BEIDOU-3S IGSO-2S (C56)",
        "meta_object_id": "2015-053A",
        "meta_epoch": "2025-12-24T16:58:26.308416",
        "meta_mean_motion": 1.00267681,
        "meta_eccentricity": 0.00606582,
        "meta_inclination": 49.4921,
        "meta_ra_of_asc_node": 260.8653,
        "meta_arg_of_pericenter": 188.5708,
        "meta_mean_anomaly": 354.4321,
        "meta_ephemeris_type": 0,
        "meta_classification_type": "U",
        "meta_norad_cat_id": 40938,
        "meta_element_set_no": 999,
        "meta_rev_at_epoch": 3760,
        "meta_bstar": 0,
        "meta_mean_motion_dot": -1.14e-06,
        "meta_mean_motion_ddot": 0,
        "tle_line1": "1 40938U 15053A   25358.70724894 -.00000114  00000+0  00000+0 0  9997",
        "tle_line2": "2 40938  49.4921 260.8653 0060658 188.5708 354.4321  1.00267681 37606"
      },
      "geometry": {
        "type": "Point",
        "coordinates": [
          -75.70961137371687,
          24.96895947648786
        ]
      }
    },
    {
      "type": "Feature",
      "properties": {
        "norad_id": 41434,
        "name": "BEIDOU-2 IGSO-6 (C13)",
        "group": "beidou",
        "lat": -56.021082962339385,
        "lon": -81.15926016499056,
        "alt_km": 35549.75348126337,
        "timestamp": "2025-12-25T07:00:34.311141+00:00",
        "meta_object_name": "BEIDOU-2 IGSO-6 (C13)",
        "meta_object_id": "2016-021A",
        "meta_epoch": "2025-12-24T14:08:03.685920",
        "meta_mean_motion": 1.00290884,
        "meta_eccentricity": 0.00608322,
        "meta_inclination": 59.9811,
        "meta_ra_of_asc_node": 39.7798,
        "meta_arg_of_pericenter": 230.476,
        "meta_mean_anomaly": 128.7548,
        "meta_ephemeris_type": 0,
        "meta_classification_type": "U",
        "meta_norad_cat_id": 41434,
        "meta_element_set_no": 999,
        "meta_rev_at_epoch": 3572,
        "meta_bstar": 0,
        "meta_mean_motion_dot": -1.33e-06,
        "meta_mean_motion_ddot": 0,
        "tle_line1": "1 41434U 16021A   25358.58893155 -.00000133  00000+0  00000+0 0  9999",
        "tle_line2": "2 41434  59.9811  39.7798 0060832 230.4760 128.7548  1.00290884 35729"
      },
      "geometry": {
        "type": "Point",
        "coordinates": [
          -81.15926016499056,
          -56.021082962339385
        ]
      }
    },
    {
      "type": "Feature",
      "properties": {
        "norad_id": 41586,
        "name": "BEIDOU-2 G7 (C03)",
        "group": "beidou",
        "lat": -1.5902428008036154,
        "lon": -50.44480539664956,
        "alt_km": 35797.97794934427,
        "timestamp": "2025-12-25T07:00:34.311153+00:00",
        "meta_object_name": "BEIDOU-2 G7 (C03)",
        "meta_object_id": "2016-037A",
        "meta_epoch": "2025-12-24T22:11:03.869376",
        "meta_mean_motion": 1.00268877,
        "meta_eccentricity": 0.00051981,
        "meta_inclination": 1.7847,
        "meta_ra_of_asc_node": 67.8922,
        "meta_arg_of_pericenter": 0.9733,
        "meta_mean_anomaly": 108.023,
        "meta_ephemeris_type": 0,
        "meta_classification_type": "U",
        "meta_norad_cat_id": 41586,
        "meta_element_set_no": 999,
        "meta_rev_at_epoch": 514,
        "meta_bstar": 0,
        "meta_mean_motion_dot": -3.32e-06,
        "meta_mean_motion_ddot": 0,
        "tle_line1": "1 41586U 16037A   25358.92435034 -.00000332  00000+0  00000+0 0  9991",
        "tle_line2": "2 41586   1.7847  67.8922 0005198   0.9733 108.0230  1.00268877  5145"
      },
      "geometry": {
        "type": "Point",
        "coordinates": [
          -50.44480539664956,
          -1.5902428008036154
        ]
      }
    },
    {
      "type": "Feature",
      "properties": {
        "norad_id": 43001,
        "name": "BEIDOU-3 M1 (C19)",
        "group": "beidou",
        "lat": 56.53358738947918,
        "lon": 156.68253098781426,
        "alt_km": 21544.595936642658,
        "timestamp": "2025-12-25T07:00:34.311165+00:00",
        "meta_object_name": "BEIDOU-3 M1 (C19)",
        "meta_object_id": "2017-069A",
        "meta_epoch": "2025-12-24T02:03:22.370112",
        "meta_mean_motion": 1.86231021,
        "meta_eccentricity": 0.00099255,
        "meta_inclination": 56.5356,
        "meta_ra_of_asc_node": 68.8594,
        "meta_arg_of_pericenter": 302.4524,
        "meta_mean_anomaly": 57.5061,
        "meta_ephemeris_type": 0,
        "meta_classification_type": "U",
        "meta_norad_cat_id": 43001,
        "meta_element_set_no": 999,
        "meta_rev_at_epoch": 5534,
        "meta_bstar": 0,
        "meta_mean_motion_dot": -2.4e-07,
        "meta_mean_motion_ddot": 0,
        "tle_line1": "1 43001U 17069A   25358.08567558 -.00000024  00000+0  00000+0 0  9993",
        "tle_line2": "2 43001  56.5356  68.8594 0009925 302.4524  57.5061  1.86231021 55340"
      },
      "geometry": {
        "type": "Point",
        "coordinates": [
          156.68253098781426,
          56.53358738947918
        ]
      }
    },
    {
      "type": "Feature",
      "properties": {
        "norad_id": 43002,
        "name": "BEIDOU-3 M2 (C20)",
        "group": "beidou",
        "lat": 39.61928173316542,
        "lon": -144.27889543977702,
        "alt_km": 21541.133640583434,
        "timestamp": "2025-12-25T07:00:34.311176+00:00",
        "meta_object_name": "BEIDOU-3 M2 (C20)",
        "meta_object_id": "2017-069B",
        "meta_epoch": "2025-12-22T09:54:58.962816",
        "meta_mean_motion": 1.86231087,
        "meta_eccentricity": 0.00067293,
        "meta_inclination": 56.5339,
        "meta_ra_of_asc_node": 68.9503,
        "meta_arg_of_pericenter": 327.7398,
        "meta_mean_anomaly": 32.2697,
        "meta_ephemeris_type": 0,
        "meta_classification_type": "U",
        "meta_norad_cat_id": 43002,
        "meta_element_set_no": 999,
        "meta_rev_at_epoch": 5530,
        "meta_bstar": 0,
        "meta_mean_motion_dot": -2.8e-07,
        "meta_mean_motion_ddot": 0,
        "tle_line1": "1 43002U 17069B   25356.41318244 -.00000028  00000+0  00000+0 0  9999",
        "tle_line2": "2 43002  56.5339  68.9503 0006729 327.7398  32.2697  1.86231087 55304"
      },
      "geometry": {
        "type": "Point",
        "coordinates": [
          -144.27889543977702,
          39.61928173316542
        ]
      }
    },
    {
      "type": "Feature",
      "properties": {
        "norad_id": 43107,
        "name": "BEIDOU-3 M7 (C27)",
        "group": "beidou",
        "lat": -43.324382440275905,
        "lon": -93.92470341133057,
        "alt_km": 21537.535071846407,
        "timestamp": "2025-12-25T07:00:34.311187+00:00",
        "meta_object_name": "BEIDOU-3 M7 (C27)",
        "meta_object_id": "2018-003A",
        "meta_epoch": "2025-12-23T05:31:08.538816",
        "meta_mean_motion": 1.86232625,
        "meta_eccentricity": 0.0002961,
        "meta_inclination": 54.4874,
        "meta_ra_of_asc_node": 308.4506,
        "meta_arg_of_pericenter": 66.5422,
        "meta_mean_anomaly": 293.4915,
        "meta_ephemeris_type": 0,
        "meta_classification_type": "U",
        "meta_norad_cat_id": 43107,
        "meta_element_set_no": 999,
        "meta_rev_at_epoch": 5407,
        "meta_bstar": 0,
        "meta_mean_motion_dot": -5.5e-07,
        "meta_mean_motion_ddot": 0,
        "tle_line1": "1 43107U 18003A   25357.22995994 -.00000055  00000+0  00000+0 0  9997",
        "tle_line2": "2 43107  54.4874 308.4506 0002961  66.5422 293.4915  1.86232625 54072"
      },
      "geometry": {
        "type": "Point",
        "coordinates": [
          -93.92470341133057,
          -43.324382440275905
        ]
      }
    },
    {
      "type": "Feature",
      "properties": {
        "norad_id": 43108,
        "name": "BEIDOU-3 M8 (C28)",
        "group": "beidou",
        "lat": -16.632701430306515,
        "lon": -63.963666821438494,
        "alt_km": 21523.954715883654,
        "timestamp": "2025-12-25T07:00:34.311199+00:00",
        "meta_object_name": "BEIDOU-3 M8 (C28)",
        "meta_object_id": "2018-003B",
        "meta_epoch": "2025-12-24T05:58:21.185184",
        "meta_mean_motion": 1.86231107,
        "meta_eccentricity": 0.00045887,
        "meta_inclination": 54.4794,
        "meta_ra_of_asc_node": 308.398,
        "meta_arg_of_pericenter": 279.3969,
        "meta_mean_anomaly": 80.5568,
        "meta_ephemeris_type": 0,
        "meta_classification_type": "U",
        "meta_norad_cat_id": 43108,
        "meta_element_set_no": 999,
        "meta_rev_at_epoch": 5410,
        "meta_bstar": 0,
        "meta_mean_motion_dot": -5.4e-07,
        "meta_mean_motion_ddot": 0,
        "tle_line1": "1 43108U 18003B   25358.24885631 -.00000054  00000+0  00000+0 0  9996",
        "tle_line2": "2 43108  54.4794 308.3980 0004588 279.3969  80.5568  1.86231107 54103"
      },
      "geometry": {
        "type": "Point",
        "coordinates": [
          -63.963666821438494,
          -16.632701430306515
        ]
      }
    }
  ]
}